NORAD_CAT_ID,OBJECT_NAME,OBJECT_TYPE,EPOCH,MEAN_MOTION,ECCENTRICITY,INCLINATION,RA_OF_ASC_NODE,ARG_OF_PERICENTER,MEAN_ANOMALY,BSTAR,MEAN_MOTION_DOT,MEAN_MOTION_DDOT,TLE_LINE0,TLE_LINE1,TLE_LINE2,SEMIMAJOR_AXIS,PERIOD,APOGEE,PERIGEE,DECAYED
49163.0,STARLINK-3088,PAYLOAD,2022-05-04 22:00:01,14.96750827,0.0003143999999999,70.0017,215.6537,276.1286,208.0621,-0.0033543,-0.00038309,0.0,0 STARLINK-3088,1 49163U 21082AK  22124.91668981 -.00038309  00000-0 -33543-2 0  9990,2 49163  70.0017 215.6537 0003144 276.1286 208.0621 14.96750827  3598,6955.081,96.208,579.132,574.759,0.0
49163.0,STARLINK-3088,PAYLOAD,2022-05-05 06:00:00,14.96742756,0.000315,70.0019,214.8155,271.5357,208.1623,0.001671,0.000191,0.0,0 STARLINK-3088,1 49163U 21082AK  22125.25001157  .00019100  00000-0  16710-2 0  9997,2 49163  70.0019 214.8155 0003150 271.5357 208.1623 14.96742756 37291,6955.106,96.209,579.1619999999998,574.78,0.0
49163.0,STARLINK-3088,PAYLOAD,2022-05-05 14:00:01,14.96743054,0.0003168999999999,70.0018,213.9772,277.5572,197.7257,-0.0018073,-0.00020731,0.0,0 STARLINK-3088,1 49163U 21082AK  22125.58334491 -.00020731  00000-0 -18073-2 0  9991,2 49163  70.0018 213.9772 0003169 277.5572 197.7257 14.96743054  3594,6955.105,96.209,579.174,574.766,0.0
49163.0,STARLINK-3088,PAYLOAD,2022-05-05 22:00:00,14.96745463,0.0003118,70.0014,213.1388,275.4656,195.4014,-0.0042161,-0.00048055,0.0,0 STARLINK-3088,1 49163U 21082AK  22125.91667824 -.00048055  00000-0 -42161-2 0  9991,2 49163  70.0014 213.1388 0003118 275.4656 195.4014 14.96745463 37396,6955.097,96.209,579.131,574.794,0.0
49163.0,STARLINK-3088,PAYLOAD,2022-05-06 14:00:01,14.96695435,0.0003312,70.0016,211.4622,276.4878,185.5045,0.0010635999999999,0.00012097,0.0,0 STARLINK-3088,1 49163U 21082AK  22126.58334491  .00012097  00000-0  10636-2 0  9993,2 49163  70.0016 211.4622 0003312 276.4878 185.5045 14.96695435 37491,6955.252,96.212,579.4209999999998,574.814,0.0
49163.0,STARLINK-3088,PAYLOAD,2022-05-07 14:00:01,14.96725772,0.0003461,70.0006,208.9571,274.7881,173.8127,-0.0015261,-0.0001751999999999,0.0,0 STARLINK-3088,1 49163U 21082AK  22127.58334491 -.00017520  00000-0 -15261-2 0  9991,2 49163  70.0006 208.9571 0003461 274.7881 173.8127 14.96725772  3586,6955.158,96.21,579.43,574.616,0.0
49163.0,STARLINK-3088,PAYLOAD,2022-05-07 22:00:00,14.96729951,0.0003398,70.0014,208.109,273.9999,170.1499,-0.0025464,-0.00029127,0.0,0 STARLINK-3088,1 49163U 21082AK  22127.91667824 -.00029127  00000-0 -25464-2 0  9999,2 49163  70.0014 208.1090 0003398 273.9999 170.1499 14.96729951 37686,6955.145,96.21,579.374,574.6469999999998,0.0
49163.0,STARLINK-3088,PAYLOAD,2022-05-08 14:00:01,14.96719443,0.0003432,70.0017,206.4326,276.4529,158.8144,0.00105,0.00011948,0.0,0 STARLINK-3088,1 49163U 21082AK  22128.58334491  .00011948  00000-0  10500-2 0  9999,2 49163  70.0017 206.4326 0003432 276.4529 158.8144 14.96719443 37784,6955.178000000001,96.21,579.43,574.656,0.0
49163.0,STARLINK-3088,PAYLOAD,2022-05-08 22:00:00,14.967235699999998,0.0003319,70.0016,205.5943,274.1099,156.721,-0.0034426,-0.00039283,0.0,0 STARLINK-3088,1 49163U 21082AK  22128.91667824 -.00039283  00000-0 -34426-2 0  9992,2 49163  70.0016 205.5943 0003319 274.1099 156.7210 14.96723570  3587,6955.165,96.21,579.339,574.722,0.0
49163.0,STARLINK-3088,PAYLOAD,2022-05-09 06:00:00,14.967247,0.0003348,70.002,204.7562,271.099,155.2646,-0.00081214,-9.377e-05,0.0,0 STARLINK-3088,1 49163U 21082AK  22129.25001157 -.00009377  00000-0 -81214-3 0  9990,2 49163  70.0020 204.7562 0003348 271.0990 155.2646 14.96724700 37881,6955.1619999999975,96.21,579.355,574.698,0.0
49163.0,STARLINK-3088,PAYLOAD,2022-05-09 14:00:01,14.96697919,0.0003348,70.0019,203.9179,277.1233,144.8615,0.0031847,0.00036535,0.0,0 STARLINK-3088,1 49163U 21082AK  22129.58335648  .00036535  00000-0  31847-2 0  9991,2 49163  70.0019 203.9179 0003348 277.1233 144.8615 14.96697919  3605,6955.245,96.212,579.438,574.781,0.0
49163.0,STARLINK-3088,PAYLOAD,2022-05-09 22:00:00,14.967247199999996,0.000328,70.0017,203.0796,274.3978,143.0725,-0.0014385,-0.00016522,0.0,0 STARLINK-3088,1 49163U 21082AK  22129.91667824 -.00016522  00000-0 -14385-2 0  9996,2 49163  70.0017 203.0796 0003280 274.3978 143.0725 14.96724720  3580,6955.1619999999975,96.21,579.308,574.745,0.0
49163.0,STARLINK-3088,PAYLOAD,2022-05-10 06:00:00,14.96741147,0.0003321,70.002,202.2414,271.5516,141.4616,-0.00095966,-0.00011066,0.0,0 STARLINK-3088,1 49163U 21082AK  22130.25001157 -.00011066  00000-0 -95966-3 0  9999,2 49163  70.0020 202.2414 0003321 271.5516 141.4616 14.96741147 38036,6955.111,96.209,579.285,574.6659999999998,0.0
49163.0,STARLINK-3088,PAYLOAD,2022-05-10 14:00:01,14.96723949,0.0003302,70.0021,201.403,277.5529,131.034,-0.00083033,-9.585e-05,0.0,0 STARLINK-3088,1 49163U 21082AK  22130.58334491 -.00009585  00000-0 -83033-3 0  9990,2 49163  70.0021 201.4030 0003302 277.5529 131.0340 14.96723949  3582,6955.1640000000025,96.21,579.326,574.732,0.0
49163.0,STARLINK-3088,PAYLOAD,2022-05-10 18:00:00,14.96735124,0.000326,70.0016,200.9839,277.2538,309.1075,-0.0045291,-0.00051577,0.0,0 STARLINK-3088,1 49163U 21082AK  22130.75001157 -.00051577  00000-0 -45291-2 0  9990,2 49163  70.0016 200.9839 0003260 277.2538 309.1075 14.96735124  3577,6955.129,96.209,579.262,574.727,0.0
49163.0,STARLINK-3088,PAYLOAD,2022-05-11 22:00:00,14.96711497,0.0003279,70.002,198.0498,273.0919,117.6733,-0.00023097,-2.734e-05,0.0,0 STARLINK-3088,1 49163U 21082AK  22131.91667824 -.00002734  00000-0 -23097-3 0  9990,2 49163  70.0020 198.0498 0003279 273.0919 117.6733 14.96711497 38283,6955.2019999999975,96.211,579.3480000000002,574.7869999999998,0.0
49163.0,STARLINK-3088,PAYLOAD,2022-05-12 14:00:01,14.96715796,0.0003362,70.0022,196.3732,276.0837,105.7881,0.0019149,0.00021895,0.0,0 STARLINK-3088,1 49163U 21082AK  22132.58334491  .00021895  00000-0  19149-2 0  9994,2 49163  70.0022 196.3732 0003362 276.0837 105.7881 14.96715796  1303,6955.189,96.211,579.393,574.716,0.0
49163.0,STARLINK-3088,PAYLOAD,2022-05-12 20:00:01,14.96748631,0.000332,70.002,195.7444,274.3275,14.211,-0.0068404,-0.0007758999999999,0.0,0 STARLINK-3088,1 49163U 21082AK  22132.83334491 -.00077590  00000-0 -68404-2 0  9995,2 49163  70.0020 195.7444 0003320 274.3275  14.2110 14.96748631 38421,6955.087,96.209,579.262,574.643,0.0
49163.0,STARLINK-3088,PAYLOAD,2022-05-12 22:00:00,14.96708665,0.0003288,70.0021,195.5349,272.6128,104.8273,-0.00085243,-9.833e-05,0.0,0 STARLINK-3088,1 49163U 21082AK  22132.91667824 -.00009833  00000-0 -85243-3 0  9999,2 49163  70.0021 195.5349 0003288 272.6128 104.8273 14.96708665  1301,6955.2109999999975,96.211,579.363,574.789,0.0
49163.0,STARLINK-3088,PAYLOAD,2022-05-13 06:00:00,14.96733186,0.0003331,70.0024,194.6967,270.5965,102.3683,-0.0021862,-0.00025037,0.0,0 STARLINK-3088,1 49163U 21082AK  22133.25001157 -.00025037  00000-0 -21862-2 0  9998,2 49163  70.0024 194.6967 0003331 270.5965 102.3683 14.96733186 38488,6955.135,96.21,579.317,574.684,0.0
49163.0,STARLINK-3088,PAYLOAD,2022-05-13 14:00:01,14.96696464,0.0003333,70.0021,193.8584,276.1382,92.3861,0.0036472,0.00041885,0.0,0 STARLINK-3088,1 49163U 21082AK  22133.58334491  .00041885  00000-0  36472-2 0  9994,2 49163  70.0021 193.8584 0003333 276.1382  92.3861 14.96696464  1302,6955.249,96.212,579.432,574.7959999999998,0.0
49163.0,STARLINK-3088,PAYLOAD,2022-05-13 22:00:00,14.96708974,0.0003288,70.0021,193.0202,272.4723,91.5998,0.00068871,7.799e-05,0.0,0 STARLINK-3088,1 49163U 21082AK  22133.91667824  .00007799  00000-0  68871-3 0  9995,2 49163  70.0021 193.0202 0003288 272.4723  91.5998 14.96708974  1300,6955.21,96.211,579.362,574.788,0.0
49163.0,STARLINK-3088,PAYLOAD,2022-05-14 06:00:00,14.96744696,0.0003308,70.0023,192.182,271.1388,88.471,-0.0057007,-0.00064789,0.0,0 STARLINK-3088,1 49163U 21082AK  22134.25001157 -.00064789  00000-0 -57007-2 0  9996,2 49163  70.0023 192.1820 0003308 271.1388  88.4710 14.96744696 38638,6955.1,96.209,579.265,574.664,0.0
49163.0,STARLINK-3088,PAYLOAD,2022-05-14 14:00:01,14.96685396,0.0003234,70.0018,191.3438,276.9257,78.2434,0.0037031,0.0004252,0.0,0 STARLINK-3088,1 49163U 21082AK  22134.58334491  .00042520  00000-0  37031-2 0  9994,2 49163  70.0018 191.3438 0003234 276.9257  78.2434 14.96685396  1309,6955.283,96.213,579.398,574.899,0.0
49163.0,STARLINK-3088,PAYLOAD,2022-05-14 22:00:00,14.96694477,0.0003179,70.0017,190.5056,272.7475,77.9623,0.0020009,0.00022873,0.0,0 STARLINK-3088,1 49163U 21082AK  22134.91667824  .00022873  00000-0  20009-2 0  9996,2 49163  70.0017 190.5056 0003179 272.7475  77.9623 14.96694477 38732,6955.255,96.212,579.331,574.909,0.0
49163.0,STARLINK-3088,PAYLOAD,2022-05-15 14:00:01,14.96709003,0.0003202,70.0013,188.829,277.5921,64.2629,0.0019083,0.00021815,0.0,0 STARLINK-3088,1 49163U 21082AK  22135.58335648  .00021815  00000-0  19083-2 0  9991,2 49163  70.0013 188.8290 0003202 277.5921  64.2629 14.96709003  1304,6955.21,96.211,579.302,574.8480000000002,0.0
49163.0,STARLINK-3088,PAYLOAD,2022-05-15 22:00:00,14.96693233,0.000308,70.0011,187.9908,272.8453,64.5143,0.0011046,0.00012567,0.0,0 STARLINK-3088,1 49163U 21082AK  22135.91667824  .00012567  00000-0  11046-2 0  9997,2 49163  70.0011 187.9908 0003080 272.8453  64.5143 14.96693233 38884,6955.259,96.212,579.266,574.982,0.0
49163.0,STARLINK-3088,PAYLOAD,2022-05-16 14:00:01,14.9669471,0.0003143999999999,70.0008,186.3142,277.4839,50.9396,0.0030757,0.00035272,0.0,0 STARLINK-3088,1 49163U 21082AK  22136.58334491  .00035272  00000-0  30757-2 0  9990,2 49163  70.0008 186.3142 0003144 277.4839  50.9396 14.96694710  1300,6955.254,96.212,579.306,574.933,0.0
49163.0,STARLINK-3088,PAYLOAD,2022-05-16 22:00:00,14.96691252,0.0003112,70.0006,185.4758,272.0903,51.8814,0.0032203,0.0003694,0.0,0 STARLINK-3088,1 49163U 21082AK  22136.91667824  .00036940  00000-0  32203-2 0  9997,2 49163  70.0006 185.4758 0003112 272.0903  51.8814 14.96691252  1302,6955.265,96.212,579.295,574.966,0.0
